{
  "type": "FeatureCollection",
  "features": [
    {
      "type": "Feature",
      "properties": {
        "norad_id": 32376,
        "name": "COSMO-SKYMED 2",
        "group": "resource",
        "lat": -78.42069846373609,
        "lon": -148.99259219813402,
        "alt_km": 630.8453413228335,
        "timestamp": "2025-12-13T03:42:10.936722+00:00",
        "meta_object_name": "COSMO-SKYMED 2",
        "meta_object_id": "2007-059A",
        "meta_epoch": "2025-12-12T07:00:25.938432",
        "meta_mean_motion": 14.82165657,
        "meta_eccentricity": 0.00015058,
        "meta_inclination": 97.8811,
        "meta_ra_of_asc_node": 167.6226,
        "meta_arg_of_pericenter": 84.8378,
        "meta_mean_anomaly": 275.3007,
        "meta_ephemeris_type": 0,
        "meta_classification_type": "U",
        "meta_norad_cat_id": 32376,
        "meta_element_set_no": 999,
        "meta_rev_at_epoch": 97431,
        "meta_bstar": 0.00012412125,
        "meta_mean_motion_dot": 9.36e-06,
        "meta_mean_motion_ddot": 0,
        "tle_line1": "1 32376U 07059A   25346.29196688  .00000936  00000+0  12412-3 0  9991",
        "tle_line2": "2 32376  97.8811 167.6226 0001505  84.8378 275.3007 14.82165657974319"
      },
      "geometry": {
        "type": "Point",
        "coordinates": [
          -148.99259219813402,
          -78.42069846373609
        ]
      }
    },
    {
      "type": "Feature",
      "properties": {
        "norad_id": 32382,
        "name": "RADARSAT-2",
        "group": "resource",
        "lat": 29.834989253848278,
        "lon": 176.70571027295006,
        "alt_km": 789.9345559487265,
        "timestamp": "2025-12-13T03:42:10.936735+00:00",
        "meta_object_name": "RADARSAT-2",
        "meta_object_id": "2007-061A",
        "meta_epoch": "2025-12-12T06:51:13.621248",
        "meta_mean_motion": 14.29981086,
        "meta_eccentricity": 0.00010998,
        "meta_inclination": 98.5802,
        "meta_ra_of_asc_node": 350.8822,
        "meta_arg_of_pericenter": 85.5127,
        "meta_mean_anomaly": 274.6181,
        "meta_ephemeris_type": 0,
        "meta_classification_type": "U",
        "meta_norad_cat_id": 32382,
        "meta_element_set_no": 999,
        "meta_rev_at_epoch": 93924,
        "meta_bstar": -2.0578712e-05,
        "meta_mean_motion_dot": -9.7e-07,
        "meta_mean_motion_ddot": 0,
        "tle_line1": "1 32382U 07061A   25346.28557432 -.00000097  00000+0 -20579-4 0  9992",
        "tle_line2": "2 32382  98.5802 350.8822 0001099  85.5127 274.6181 14.29981086939241"
      },
      "geometry": {
        "type": "Point",
        "coordinates": [
          176.70571027295006,
          29.834989253848278
        ]
      }
    },
    {
      "type": "Feature",
      "properties": {
        "norad_id": 32783,
        "name": "CARTOSAT-2A",
        "group": "resource",
        "lat": 52.73609345733745,
        "lon": 26.59449029447717,
        "alt_km": 622.3607674794503,
        "timestamp": "2025-12-13T03:42:10.936747+00:00",
        "meta_object_name": "CARTOSAT-2A",
        "meta_object_id": "2008-021A",
        "meta_epoch": "2025-12-12T07:58:38.853696",
        "meta_mean_motion": 14.78937837,
        "meta_eccentricity": 0.00119396,
        "meta_inclination": 97.7929,
        "meta_ra_of_asc_node": 36.1684,
        "meta_arg_of_pericenter": 6.2188,
        "meta_mean_anomaly": 353.9169,
        "meta_ephemeris_type": 0,
        "meta_classification_type": "U",
        "meta_norad_cat_id": 32783,
        "meta_element_set_no": 999,
        "meta_rev_at_epoch": 95118,
        "meta_bstar": 0.00025250782,
        "meta_mean_motion_dot": 1.814e-05,
        "meta_mean_motion_ddot": 0,
        "tle_line1": "1 32783U 08021A   25346.33239414  .00001814  00000+0  25251-3 0  9994",
        "tle_line2": "2 32783  97.7929  36.1684 0011939   6.2188 353.9169 14.78937837951181"
      },
      "geometry": {
        "type": "Point",
        "coordinates": [
          26.59449029447717,
          52.73609345733745
        ]
      }
    },
    {
      "type": "Feature",
      "properties": {
        "norad_id": 33320,
        "name": "HUANJING 1A (HJ-1A)",
        "group": "resource",
        "lat": -73.04803488909295,
        "lon": 1.616834299313708,
        "alt_km": 630.2412167023194,
        "timestamp": "2025-12-13T03:42:10.936757+00:00",
        "meta_object_name": "HUANJING 1A (HJ-1A)",
        "meta_object_id": "2008-041A",
        "meta_epoch": "2025-12-12T06:59:37.671072",
        "meta_mean_motion": 14.83393499,
        "meta_eccentricity": 0.00202011,
        "meta_inclination": 97.6545,
        "meta_ra_of_asc_node": 334.6087,
        "meta_arg_of_pericenter": 35.8709,
        "meta_mean_anomaly": 324.3858,
        "meta_ephemeris_type": 0,
        "meta_classification_type": "U",
        "meta_norad_cat_id": 33320,
        "meta_element_set_no": 999,
        "meta_rev_at_epoch": 93069,
        "meta_bstar": 0.00030447621,
        "meta_mean_motion_dot": 2.455e-05,
        "meta_mean_motion_ddot": 0,
        "tle_line1": "1 33320U 08041A   25346.29140823  .00002455  00000+0  30448-3 0  9990",
        "tle_line2": "2 33320  97.6545 334.6087 0020201  35.8709 324.3858 14.83393499930690"
      },
      "geometry": {
        "type": "Point",
        "coordinates": [
          1.616834299313708,
          -73.04803488909295
        ]
      }
    },
    {
      "type": "Feature",
      "properties": {
        "norad_id": 33321,
        "name": "HUANJING 1B (HJ-1B)",
        "group": "resource",
        "lat": 33.48067146800814,
        "lon": 164.22500652055777,
        "alt_km": 609.9586512115984,
        "timestamp": "2025-12-13T03:42:10.936768+00:00",
        "meta_object_name": "HUANJING 1B (HJ-1B)",
        "meta_object_id": "2008-041B",
        "meta_epoch": "2025-12-12T05:59:46.665888",
        "meta_mean_motion": 14.82820323,
        "meta_eccentricity": 0.00381911,
        "meta_inclination": 97.6403,
        "meta_ra_of_asc_node": 338.267,
        "meta_arg_of_pericenter": 77.1817,
        "meta_mean_anomaly": 283.366,
        "meta_ephemeris_type": 0,
        "meta_classification_type": "U",
        "meta_norad_cat_id": 33321,
        "meta_element_set_no": 999,
        "meta_rev_at_epoch": 93070,
        "meta_bstar": 0.0003403018,
        "meta_mean_motion_dot": 2.737e-05,
        "meta_mean_motion_ddot": 0,
        "tle_line1": "1 33321U 08041B   25346.24984567  .00002737  00000+0  34030-3 0  9991",
        "tle_line2": "2 33321  97.6403 338.2670 0038191  77.1817 283.3660 14.82820323930705"
      },
      "geometry": {
        "type": "Point",
        "coordinates": [
          164.22500652055777,
          33.48067146800814
        ]
      }
    },
    {
      "type": "Feature",
      "properties": {
        "norad_id": 33331,
        "name": "GEOEYE 1",
        "group": "resource",
        "lat": 72.92211243484059,
        "lon": -93.8578025601254,
        "alt_km": 672.5753765748459,
        "timestamp": "2025-12-13T03:42:10.936779+00:00",
        "meta_object_name": "GEOEYE 1",
        "meta_object_id": "2008-042A",
        "meta_epoch": "2025-12-12T05:54:45.709632",
        "meta_mean_motion": 14.6481186,
        "meta_eccentricity": 0.00027392,
        "meta_inclination": 98.1253,
        "meta_ra_of_asc_node": 57.5333,
        "meta_arg_of_pericenter": 278.448,
        "meta_mean_anomaly": 81.6413,
        "meta_ephemeris_type": 0,
        "meta_classification_type": "U",
        "meta_norad_cat_id": 33331,
        "meta_element_set_no": 999,
        "meta_rev_at_epoch": 92278,
        "meta_bstar": 0.00019429048,
        "meta_mean_motion_dot": 9.89e-06,
        "meta_mean_motion_ddot": 0,
        "tle_line1": "1 33331U 08042A   25346.24636238  .00000989  00000+0  19429-3 0  9994",
        "tle_line2": "2 33331  98.1253  57.5333 0002739 278.4480  81.6413 14.64811860922783"
      },
      "geometry": {
        "type": "Point",
        "coordinates": [
          -93.8578025601254,
          72.92211243484059
        ]
      }
    },
    {
      "type": "Feature",
      "properties": {
        "norad_id": 33396,
        "name": "THEOS",
        "group": "resource",
        "lat": -72.9700227555668,
        "lon": -164.32455766564405,
        "alt_km": 833.1063231296675,
        "timestamp": "2025-12-13T03:42:10.936789+00:00",
        "meta_object_name": "THEOS",
        "meta_object_id": "2008-049A",
        "meta_epoch": "2025-12-12T07:54:14.770368",
        "meta_mean_motion": 14.2009579,
        "meta_eccentricity": 0.00011616,
        "meta_inclination": 98.5864,
        "meta_ra_of_asc_node": 44.4305,
        "meta_arg_of_pericenter": 96.2065,
        "meta_mean_anomaly": 263.9244,
        "meta_ephemeris_type": 0,
        "meta_classification_type": "U",
        "meta_norad_cat_id": 33396,
        "meta_element_set_no": 999,
        "meta_rev_at_epoch": 89144,
        "meta_bstar": -2.0669722e-05,
        "meta_mean_motion_dot": -8.7e-07,
        "meta_mean_motion_ddot": 0,
        "tle_line1": "1 33396U 08049A   25346.32933762 -.00000087  00000+0 -20670-4 0  9995",
        "tle_line2": "2 33396  98.5864  44.4305 0001161  96.2065 263.9244 14.20095790891446"
      },
      "geometry": {
        "type": "Point",
        "coordinates": [
          -164.32455766564405,
          -72.9700227555668
        ]
      }
    }
  ]
}